SL-14 R/B               
1 21423U 91042B   26064.90876543  .00000591  00000+0  71840-4 0  9996
2 21423  82.4915 223.7278 0015638 252.0863 107.8646 14.81824472852517
ERS-1                   
1 21574U 91050A   26064.94373278  .00000356  00000+0  12866-3 0  9994
2 21574  98.7885  83.0842 0031425 211.7332 148.1962 14.39445550815190
ARIANE 40 R/B           
1 21610U 91050F   26064.72621311  .00000429  00000+0  14103-3 0  9992
2 21610  98.2020 117.1112 0004353  89.9282 270.2407 14.42890414818422
INTERCOSMOS 25          
1 21819U 91086A   26064.69509710  .00001644  00000+0  31546-3 0  9996
2 21819  82.6058 312.4229 1487006 125.5367 249.3693 12.11987048496208
SL-8 R/B                
1 21876U 92008B   26064.95054151  .00000005  00000+0 -10614-4 0  9992
2 21876  82.9227 270.5606 0035359 143.5165 327.2095 13.75969754708900
SL-8 R/B                
1 21938U 92020B   26064.70290906  .00000108  00000+0  96012-4 0  9997
2 21938  82.9341 156.7210 0027810 310.4040 166.8656 13.75548996700589
USA 81                  
1 21949U 92023A   26064.67691384  .00000242  00000+0  82214-4 0  9991
2 21949  85.0092 133.7560 0002571  80.6897 279.4586 14.32366484 94217
COSMOS 2219             
1 22219U 92076A   26064.98409783  .00000245  00000+0  15330-3 0  9991
2 22219  71.0625  25.8131 0019221 212.0008 147.9949 14.14090887717850
SL-16 R/B               
1 22220U 92076B   26064.83348094 -.00000045  00000+0  14747-5 0  9996
2 22220  71.0002 196.4956 0010524 103.4998  59.0645 14.16860314721289
COSMOS 2221             
1 22236U 92080A   26064.69155275  .00002665  00000+0  23393-3 0  9993
2 22236  82.5012 282.9117 0013676 201.0010 159.0652 14.96183542780198
SL-16 R/B               
1 22285U 92093B   26064.92331188 -.00000195  00000+0 -75538-4 0  9993
2 22285  71.0239  12.1715 0006354 297.6678  62.3799 14.15449013712629
COSMOS 2228             
1 22286U 92094A   26064.97789854  .00002730  00000+0  23346-3 0  9991
2 22286  82.5149 240.8650 0017017 317.8938  42.0976 14.97167409775501
